NORAD_CAT_ID,OBJECT_NAME,OBJECT_TYPE,EPOCH,MEAN_MOTION,ECCENTRICITY,INCLINATION,RA_OF_ASC_NODE,ARG_OF_PERICENTER,MEAN_ANOMALY,BSTAR,MEAN_MOTION_DOT,MEAN_MOTION_DDOT,TLE_LINE0,TLE_LINE1,TLE_LINE2,SEMIMAJOR_AXIS,PERIOD,APOGEE,PERIGEE,DECAYED
53162.0,STARLINK-4114,PAYLOAD,2023-10-28 12:56:06,15.08834436,0.0001655,53.2157,78.9606,96.8069,263.3112,-9.4967e-05,-1.799e-05,0.0,0 STARLINK-4114,1 53162U 22083AG  23301.53896813 -.00001799  00000-0 -94967-4 0  9991,2 53162  53.2157  78.9606 0001655  96.8069 263.3112 15.08834436 71056,6917.897,95.438,540.907,538.617,0.0
53162.0,STARLINK-4114,PAYLOAD,2023-10-28 16:06:53,15.08835108,0.0001328,53.2165,78.3687,80.7612,279.353,-6.3235e-05,-1.294e-05,0.0,0 STARLINK-4114,1 53162U 22083AG  23301.67144953 -.00001294  00000-0 -63235-4 0  9991,2 53162  53.2165  78.3687 0001328  80.7612 279.3530 15.08835108 71071,6917.895,95.438,540.679,538.842,0.0
53162.0,STARLINK-4114,PAYLOAD,2023-10-29 12:46:53,15.08855225,0.0001985,53.2177,74.5007,82.7399,277.3819,0.00010502,1.384e-05,0.0,0 STARLINK-4114,1 53162U 22083AG  23302.53256043  .00001384  00000-0  10502-3 0  9997,2 53162  53.2177  74.5007 0001985  82.7399 277.3819 15.08855225 71835,6917.834,95.437,541.072,538.326,0.0
53162.0,STARLINK-4114,PAYLOAD,2023-10-29 14:22:16,15.08856876,0.0001521,53.2172,74.2046,81.4268,278.6896,0.00027363,4.071e-05,0.0,0 STARLINK-4114,1 53162U 22083AG  23302.59879899  .00004071  00000-0  27363-3 0  9992,2 53162  53.2172  74.2046 0001521  81.4268 278.6896 15.08856876 71211,6917.829,95.436,540.746,538.642,0.0
53162.0,STARLINK-4114,PAYLOAD,2023-10-29 19:08:25,15.08867736,0.0001572,53.2172,73.3136,79.3172,280.7997,0.00082248,0.00012836,0.0,0 STARLINK-4114,1 53162U 22083AG  23302.79751807  .00012836  00000-0  82248-3 0  9993,2 53162  53.2172  73.3136 0001572  79.3172 280.7997 15.08867736 71243,6917.796,95.436,540.748,538.573,0.0
53162.0,STARLINK-4114,PAYLOAD,2023-10-30 12:37:40,15.08828098,0.0001361,53.2172,70.0451,92.5881,267.5267,-0.00053603,-8.806e-05,0.0,0 STARLINK-4114,1 53162U 22083AG  23303.52616704 -.00008806  00000-0 -53603-3 0  9998,2 53162  53.2172  70.0451 0001361  92.5881 267.5267 15.08828098 71989,6917.917,95.438,540.723,538.84,0.0
53162.0,STARLINK-4114,PAYLOAD,2023-10-30 15:48:27,15.08838097,0.0001236,53.2169,69.449,87.2135,272.8998,-3.5572e-06,-3.44e-06,0.0,0 STARLINK-4114,1 53162U 22083AG  23303.65864712 -.00000344  00000-0 -35572-5 0  9992,2 53162  53.2169  69.4490 0001236  87.2135 272.8998 15.08838097 72008,6917.886,95.438,540.606,538.896,0.0
53162.0,STARLINK-4114,PAYLOAD,2023-10-31 14:03:51,15.08837967,0.0001201,53.2172,65.2872,91.8385,268.2745,0.00060953,9.426e-05,0.0,0 STARLINK-4114,1 53162U 22083AG  23304.58601535  .00009426  00000-0  60953-3 0  9994,2 53162  53.2172  65.2872 0001201  91.8385 268.2745 15.08837967 71519,6917.887,95.438,540.582,538.921,0.0
53162.0,STARLINK-4114,PAYLOAD,2023-10-31 17:14:37,15.08847188,0.0001245,53.2173,64.6916,92.1979,267.9156,0.00084305,0.00013157,0.0,0 STARLINK-4114,1 53162U 22083AG  23304.71849363  .00013157  00000-0  84305-3 0  9995,2 53162  53.2173  64.6916 0001245  92.1979 267.9156 15.08847188 72163,6917.858,95.437,540.585,538.862,0.0
53162.0,STARLINK-4114,PAYLOAD,2023-11-01 01:11:33,15.08836919,0.0001702,53.2186,63.2047,87.0744,273.0442,0.00041015,6.245e-05,0.0,0 STARLINK-4114,1 53162U 22083AG  23305.04969892  .00006245  00000-0  41015-3 0  9993,2 53162  53.2186  63.2047 0001702  87.0744 273.0442 15.08836919 72210,6917.89,95.438,540.932,538.577,0.0
53162.0,STARLINK-4114,PAYLOAD,2023-11-01 13:54:39,15.08836744,0.0001424,53.217,60.8264,83.7803,276.3351,0.00030589,4.583e-05,0.0,0 STARLINK-4114,1 53162U 22083AG  23305.57962038  .00004583  00000-0  30589-3 0  9993,2 53162  53.2170  60.8264 0001424  83.7803 276.3351 15.08836744 71666,6917.89,95.438,540.74,538.77,0.0
53162.0,STARLINK-4114,PAYLOAD,2023-11-01 17:05:25,15.0884259,0.0001624,53.2169,60.2302,85.6268,274.491,0.00042044,6.41e-05,0.0,0 STARLINK-4114,1 53162U 22083AG  23305.71210006  .00006410  00000-0  42044-3 0  9990,2 53162  53.2169  60.2302 0001624  85.6268 274.4910 15.08842590 71687,6917.872,95.437,540.861,538.614,0.0
53162.0,STARLINK-4114,PAYLOAD,2023-11-02 13:45:25,15.08852893,0.0001448,53.2167,56.3661,88.634,271.4818,0.00044907,6.869e-05,0.0,0 STARLINK-4114,1 53162U 22083AG  23306.57321573  .00006869  00000-0  44907-3 0  9995,2 53162  53.2167  56.3661 0001448  88.6340 271.4818 15.08852893 72443,6917.841,95.437,540.708,538.704,0.0
53162.0,STARLINK-4114,PAYLOAD,2023-11-03 10:25:26,15.088467,0.0001749,53.2188,52.4996,101.87,258.2489,0.00017471,2.494e-05,0.0,0 STARLINK-4114,1 53162U 22083AG  23307.43433568  .00002494  00000-0  17471-3 0  9995,2 53162  53.2188  52.4996 0001749 101.8700 258.2489 15.08846700 72577,6917.86,95.437,540.935,538.515,0.0
53162.0,STARLINK-4114,PAYLOAD,2023-11-03 13:36:12,15.08848607,0.0001822,53.2188,51.9047,96.1966,263.9234,0.00015365,2.159e-05,0.0,0 STARLINK-4114,1 53162U 22083AG  23307.56681525  .00002159  00000-0  15365-3 0  9995,2 53162  53.2188  51.9047 0001822  96.1966 263.9234 15.08848607 71961,6917.854,95.437,540.98,538.459,0.0
53162.0,STARLINK-4114,PAYLOAD,2023-11-04 10:16:14,15.08837473,0.000134,53.2193,48.0398,92.4141,267.7004,6.0249e-05,6.71e-06,0.0,0 STARLINK-4114,1 53162U 22083AG  23308.42794126  .00000671  00000-0  60249-4 0  9992,2 53162  53.2193  48.0398 0001340  92.4141 267.7004 15.08837473 72723,6917.888,95.438,540.68,538.826,0.0
53162.0,STARLINK-4114,PAYLOAD,2023-11-04 13:27:00,15.08842241,0.0001325,53.2181,47.4436,87.183,272.9313,8.9344e-05,1.134e-05,0.0,0 STARLINK-4114,1 53162U 22083AG  23308.56042022  .00001134  00000-0  89344-4 0  9990,2 53162  53.2181  47.4436 0001325  87.1830 272.9313 15.08842241 72118,6917.874,95.437,540.655,538.822,0.0
53162.0,STARLINK-4114,PAYLOAD,2023-11-05 11:42:23,15.08856879,0.0001377,53.218,43.2814,77.9367,282.1779,0.00056299,8.687e-05,0.0,0 STARLINK-4114,1 53162U 22083AG  23309.48777680  .00008687  00000-0  56299-3 0  9999,2 53162  53.2180  43.2814 0001377  77.9367 282.1779 15.08856879 72885,6917.829,95.436,540.646,538.741,0.0
53162.0,STARLINK-4114,PAYLOAD,2023-11-05 13:17:46,15.08870438,0.0001301,53.219,42.984,85.1717,274.9424,0.00084046,0.00013124,0.0,0 STARLINK-4114,1 53162U 22083AG  23309.55400934  .00013124  00000-0  84046-3 0  9995,2 53162  53.2190  42.9840 0001301  85.1717 274.9424 15.08870438 72263,6917.787,95.436,540.552,538.752,0.0
53162.0,STARLINK-4114,PAYLOAD,2023-11-05 22:50:05,15.08867022,0.0001154,53.218,41.1996,78.2766,281.8356,0.00072344,0.00011253,0.0,0 STARLINK-4114,1 53162U 22083AG  23309.95144841  .00011253  00000-0  72344-3 0  9990,2 53162  53.2180  41.1996 0001154  78.2766 281.8356 15.08867022 72950,6917.798,95.436,540.461,538.864,0.0
53162.0,STARLINK-4114,PAYLOAD,2023-11-06 13:08:33,15.08809127,0.0001395,53.2185,38.5236,77.4162,282.6987,-0.0018889,-0.00030199,0.0,0 STARLINK-4114,1 53162U 22083AG  23310.54761292 -.00030199  00000-0 -18889-2 0  9997,2 53162  53.2185  38.5236 0001395  77.4162 282.6987 15.08809127 72412,6917.975,95.44,540.805,538.875,0.0
53162.0,STARLINK-4114,PAYLOAD,2023-11-07 11:24:00,15.08793257,0.0001563,53.2179,34.3622,68.7502,291.3657,0.0017568,0.00027746,0.0,0 STARLINK-4114,1 53162U 22083AG  23311.47500877  .00027746  00000-0  17568-2 0  9995,2 53162  53.2179  34.3622 0001563  68.7502 291.3657 15.08793257 73188,6918.023,95.441,540.97,538.807,0.0
53162.0,STARLINK-4114,PAYLOAD,2023-11-07 12:59:24,15.08797702,0.0001516,53.2182,34.0663,80.6016,279.5147,0.0017086,0.00026977,0.0,0 STARLINK-4114,1 53162U 22083AG  23311.54125019  .00026977  00000-0  17086-2 0  9994,2 53162  53.2182  34.0663 0001516  80.6016 279.5147 15.08797702 72567,6918.01,95.44,540.923,538.826,0.0
53162.0,STARLINK-4114,PAYLOAD,2023-11-07 22:31:43,15.08835517,0.0001632,53.2183,32.2826,81.2969,278.8208,0.0021784,0.00034547,0.0,0 STARLINK-4114,1 53162U 22083AG  23311.93869417  .00034547  00000-0  21784-2 0  9996,2 53162  53.2183  32.2826 0001632  81.2969 278.8208 15.08835517 73256,6917.894,95.438,540.888,538.63,0.0
53162.0,STARLINK-4114,PAYLOAD,2023-11-08 12:50:10,15.08886151,0.0001617,53.2179,29.6059,77.4704,282.6469,0.0022325,0.00035466,0.0,0 STARLINK-4114,1 53162U 22083AG  23312.53484299  .00035466  00000-0  22325-2 0  9997,2 53162  53.2179  29.6059 0001617  77.4704 282.6469 15.08886151 72718,6917.739,95.435,540.723,538.486,0.0
53162.0,STARLINK-4114,PAYLOAD,2023-11-08 22:22:28,15.08875238,0.0001804,53.2182,27.8226,79.4998,280.6197,0.00096826,0.0001517,0.0,0 STARLINK-4114,1 53162U 22083AG  23312.93227843  .00015170  00000-0  96826-3 0  9999,2 53162  53.2182  27.8226 0001804  79.4998 280.6197 15.08875238 72779,6917.773,95.435,540.886,538.39,0.0
53162.0,STARLINK-4114,PAYLOAD,2023-11-09 11:05:33,15.08865684,0.0001557,53.2181,25.4427,85.3763,274.7407,0.0019421,0.00030778,0.0,0 STARLINK-4114,1 53162U 22083AG  23313.46219483  .00030778  00000-0  19421-2 0  9995,2 53162  53.2181  25.4427 0001557  85.3763 274.7407 15.08865684 73487,6917.802,95.436,540.744,538.59,0.0
53162.0,STARLINK-4114,PAYLOAD,2023-11-09 12:40:56,15.08863884,0.0001484,53.2178,25.1477,84.1221,275.994,0.0021077,0.00033438,0.0,0 STARLINK-4114,1 53162U 22083AG  23313.52843496  .00033438  00000-0  21077-2 0  9995,2 53162  53.2178  25.1477 0001484  84.1221 275.9940 15.08863884 72866,6917.807,95.436,540.699,538.646,0.0
53162.0,STARLINK-4114,PAYLOAD,2023-11-09 22:13:15,15.08863807,0.0001631,53.2185,23.362,82.8564,277.2613,0.0015668,0.00024752,0.0,0 STARLINK-4114,1 53162U 22083AG  23313.92587362  .00024752  00000-0  15668-2 0  9994,2 53162  53.2185  23.3620 0001631  82.8564 277.2613 15.08863807 72927,6917.808,95.436,540.801,538.544,0.0
53162.0,STARLINK-4114,PAYLOAD,2023-11-10 04:34:47,15.08861065,0.0001917,53.2169,22.1765,76.6458,283.4748,0.0010955,0.000172,0.0,0 STARLINK-4114,1 53162U 22083AG  23314.19083288  .00017200  00000-0  10955-2 0  9996,2 53162  53.2169  22.1765 0001917  76.6458 283.4748 15.08861065 73592,6917.816,95.436,541.007,538.355,0.0
